[
    {
        "Altitude(m)": 714835.0048572284,
        "Argument of Periapsis(deg)": 0.005695060593313534,
        "Eccentricity": 0.0,
        "Inclination(deg)": 45.0,
        "Latitude(deg)": -37.7921206804605,
        "Longitude(deg)": 29.157783051292448,
        "Mean Anomaly(deg)": -59.687891676259525,
        "RAAN(deg)": 179.9946240292709,
        "Satellite Name": "Constellation 1 810",
        "Satellite Number": 810,
        "Semi-Major Axis(m)": 7083131.272910544,
        "Time(s)": 95
    },
    {
        "Altitude(m)": 714823.7337546502,
        "Argument of Periapsis(deg)": 0.00575500859955894,
        "Eccentricity": 0.0,
        "Inclination(deg)": 45.0,
        "Latitude(deg)": -37.7647593042005,
        "Longitude(deg)": 29.221944388245078,
        "Mean Anomaly(deg)": -59.62719053600968,
        "RAAN(deg)": 179.99456744010533,
        "Satellite Name": "Constellation 1 810",
        "Satellite Number": 810,
        "Semi-Major Axis(m)": 7083131.272910544,
        "Time(s)": 96
    },
    {
        "Altitude(m)": 714812.4474353325,
        "Argument of Periapsis(deg)": 0.005814956605804345,
        "Eccentricity": 0.0,
        "Inclination(deg)": 45.0,
        "Latitude(deg)": -37.737358248360366,
        "Longitude(deg)": 29.28605571825658,
        "Mean Anomaly(deg)": -59.56648939575972,
        "RAAN(deg)": 179.99451085093978,
        "Satellite Name": "Constellation 1 810",
        "Satellite Number": 810,
        "Semi-Major Axis(m)": 7083131.272910544,
        "Time(s)": 97
    },
    {
        "Altitude(m)": 714801.1459401605,
        "Argument of Periapsis(deg)": 0.00587490461204975,
        "Eccentricity": 0.0,
        "Inclination(deg)": 45.0,
        "Latitude(deg)": -37.709917580147085,
        "Longitude(deg)": 29.350116887394986,
        "Mean Anomaly(deg)": -59.505788255509856,
        "RAAN(deg)": 179.99445426177417,
        "Satellite Name": "Constellation 1 810",
        "Satellite Number": 810,
        "Semi-Major Axis(m)": 7083131.272910544,
        "Time(s)": 98
    },
    {
        "Altitude(m)": 714789.829310071,
        "Argument of Periapsis(deg)": 0.005934852618295156,
        "Eccentricity": 0.0,
        "Inclination(deg)": 45.0,
        "Latitude(deg)": -37.682437366730326,
        "Longitude(deg)": 29.414127910150274,
        "Mean Anomaly(deg)": -59.44508711526,
        "RAAN(deg)": 179.9943976726086,
        "Satellite Name": "Constellation 1 810",
        "Satellite Number": 810,
        "Semi-Major Axis(m)": 7083131.272910544,
        "Time(s)": 99
    },
    {
        "Altitude(m)": 714778.4975860532,
        "Argument of Periapsis(deg)": 0.005994800624540561,
        "Eccentricity": 0.0,
        "Inclination(deg)": 45.0,
        "Latitude(deg)": -37.65491767524231,
        "Longitude(deg)": 29.47808880133555,
        "Mean Anomaly(deg)": -59.38438597501001,
        "RAAN(deg)": 179.99434108344303,
        "Satellite Name": "Constellation 1 810",
        "Satellite Number": 810,
        "Semi-Major Axis(m)": 7083131.272910544,
        "Time(s)": 100
    },
    {
        "Altitude(m)": 714767.1508091426,
        "Argument of Periapsis(deg)": 0.006054748630785968,
        "Eccentricity": 0.0,
        "Inclination(deg)": 45.0,
        "Latitude(deg)": -37.627358572777666,
        "Longitude(deg)": 29.54199957608515,
        "Mean Anomaly(deg)": -59.32368483476018,
        "RAAN(deg)": 179.99428449427748,
        "Satellite Name": "Constellation 1 810",
        "Satellite Number": 810,
        "Semi-Major Axis(m)": 7083131.272910544,
        "Time(s)": 101
    },
    {
        "Altitude(m)": 714755.7890204289,
        "Argument of Periapsis(deg)": 0.006114696637031373,
        "Eccentricity": 0.0,
        "Inclination(deg)": 45.0,
        "Latitude(deg)": -37.599760126392724,
        "Longitude(deg)": 29.605860249853976,
        "Mean Anomaly(deg)": -59.26298369451032,
        "RAAN(deg)": 179.99422790511193,
        "Satellite Name": "Constellation 1 810",
        "Satellite Number": 810,
        "Semi-Major Axis(m)": 7083131.272910544,
        "Time(s)": 102
    },
    {
        "Altitude(m)": 714744.4122610503,
        "Argument of Periapsis(deg)": 0.006174644643276778,
        "Eccentricity": 0.0,
        "Inclination(deg)": 45.0,
        "Latitude(deg)": -37.57212240310526,
        "Longitude(deg)": 29.669670838415882,
        "Mean Anomaly(deg)": -59.20228255426046,
        "RAAN(deg)": 179.99417131594632,
        "Satellite Name": "Constellation 1 810",
        "Satellite Number": 810,
        "Semi-Major Axis(m)": 7083131.272910544,
        "Time(s)": 103
    },
    {
        "Altitude(m)": 714733.0205722008,
        "Argument of Periapsis(deg)": 0.006234592649522184,
        "Eccentricity": 0.0,
        "Inclination(deg)": 45.0,
        "Latitude(deg)": -37.54444546989451,
        "Longitude(deg)": 29.73343118976493,
        "Mean Anomaly(deg)": -59.14158141401049,
        "RAAN(deg)": 179.99411472678077,
        "Satellite Name": "Constellation 1 810",
        "Satellite Number": 810,
        "Semi-Major Axis(m)": 7083131.272910544,
        "Time(s)": 104
    },
    {
        "Altitude(m)": 714721.6139951193,
        "Argument of Periapsis(deg)": 0.00629454065576759,
        "Eccentricity": 0.0,
        "Inclination(deg)": 45.0,
        "Latitude(deg)": -37.51672939369959,
        "Longitude(deg)": 29.797141656502106,
        "Mean Anomaly(deg)": -59.08088027376055,
        "RAAN(deg)": 179.9940581376152,
        "Satellite Name": "Constellation 1 810",
        "Satellite Number": 810,
        "Semi-Major Axis(m)": 7083131.272910544,
        "Time(s)": 105
    },
    {
        "Altitude(m)": 714710.1925710958,
        "Argument of Periapsis(deg)": 0.006354488662012995,
        "Eccentricity": 0.0,
        "Inclination(deg)": 45.0,
        "Latitude(deg)": -37.48897424142082,
        "Longitude(deg)": 29.860802087251955,
        "Mean Anomaly(deg)": -59.020179133510666,
        "RAAN(deg)": 179.99400154844963,
        "Satellite Name": "Constellation 1 810",
        "Satellite Number": 810,
        "Semi-Major Axis(m)": 7083131.272910544,
        "Time(s)": 106
    },
    {
        "Altitude(m)": 714698.7563414751,
        "Argument of Periapsis(deg)": 0.006414436668258401,
        "Eccentricity": 0.0,
        "Inclination(deg)": 45.0,
        "Latitude(deg)": -37.461180079918165,
        "Longitude(deg)": 29.92441249904944,
        "Mean Anomaly(deg)": -58.95947799326083,
        "RAAN(deg)": 179.99394495928408,
        "Satellite Name": "Constellation 1 810",
        "Satellite Number": 810,
        "Semi-Major Axis(m)": 7083131.272910544,
        "Time(s)": 107
    },
    {
        "Altitude(m)": 714687.3053476423,
        "Argument of Periapsis(deg)": 0.0064743846745038075,
        "Eccentricity": 0.0,
        "Inclination(deg)": 45.0,
        "Latitude(deg)": -37.43334697601117,
        "Longitude(deg)": 29.987972909241304,
        "Mean Anomaly(deg)": -58.898776853010844,
        "RAAN(deg)": 179.99388837011847,
        "Satellite Name": "Constellation 1 810",
        "Satellite Number": 810,
        "Semi-Major Axis(m)": 7083131.272910544,
        "Time(s)": 108
    },
    {
        "Altitude(m)": 714675.839631044,
        "Argument of Periapsis(deg)": 0.0065343326807492125,
        "Eccentricity": 0.0,
        "Inclination(deg)": 45.0,
        "Latitude(deg)": -37.40547499647883,
        "Longitude(deg)": 30.05148333548421,
        "Mean Anomaly(deg)": -58.838075712760975,
        "RAAN(deg)": 179.99383178095292,
        "Satellite Name": "Constellation 1 810",
        "Satellite Number": 810,
        "Semi-Major Axis(m)": 7083131.272910544,
        "Time(s)": 109
    },
    {
        "Altitude(m)": 714664.359233167,
        "Argument of Periapsis(deg)": 0.0065942806869946176,
        "Eccentricity": 0.0,
        "Inclination(deg)": 45.0,
        "Latitude(deg)": -37.377564208058885,
        "Longitude(deg)": 30.11494379574412,
        "Mean Anomaly(deg)": -58.77737457251115,
        "RAAN(deg)": 179.99377519178736,
        "Satellite Name": "Constellation 1 810",
        "Satellite Number": 810,
        "Semi-Major Axis(m)": 7083131.272910544,
        "Time(s)": 110
    },
    {
        "Altitude(m)": 714652.8641955514,
        "Argument of Periapsis(deg)": 0.006654228693240024,
        "Eccentricity": 0.0,
        "Inclination(deg)": 45.0,
        "Latitude(deg)": -37.349614677447875,
        "Longitude(deg)": 30.17835414019755,
        "Mean Anomaly(deg)": -58.71667343226127,
        "RAAN(deg)": 179.99371860262178,
        "Satellite Name": "Constellation 1 810",
        "Satellite Number": 810,
        "Semi-Major Axis(m)": 7083131.272910544,
        "Time(s)": 111
    },
    {
        "Altitude(m)": 714641.3545597836,
        "Argument of Periapsis(deg)": 0.006714176699485429,
        "Eccentricity": 0.0,
        "Inclination(deg)": 45.0,
        "Latitude(deg)": -37.32162647129976,
        "Longitude(deg)": 30.241714723617857,
        "Mean Anomaly(deg)": -58.65597229201132,
        "RAAN(deg)": 179.9936620134562,
        "Satellite Name": "Constellation 1 810",
        "Satellite Number": 810,
        "Semi-Major Axis(m)": 7083131.272910544,
        "Time(s)": 112
    },
    {
        "Altitude(m)": 714629.8303675059,
        "Argument of Periapsis(deg)": 0.006774124705730835,
        "Eccentricity": 0.0,
        "Inclination(deg)": 45.0,
        "Latitude(deg)": -37.29359965622715,
        "Longitude(deg)": 30.305025396792278,
        "Mean Anomaly(deg)": -58.59527115176136,
        "RAAN(deg)": 179.99360542429065,
        "Satellite Name": "Constellation 1 810",
        "Satellite Number": 810,
        "Semi-Major Axis(m)": 7083131.272910544,
        "Time(s)": 113
    }
]